HYPERFIELD-1A           
1 60562U 24149CY  26068.76488211  .00008569  00000+0  30052-3 0  9998
2 60562  97.3842 149.5066 0003865 313.7844  46.3076 15.29681349 86836
STARLINK-33974          
1 63954U 25099C   26068.30949894  .00038854  00000+0  14137-2 0  9995
2 63954  42.9999 178.7605 0001834 275.0177  85.0465 15.27587074 47274
